0 APEX
1 23191U 94046A   13282.47913390  .00018686  00000-0  79925-3 0  7083
2 23191 069.9306 010.2235 0798120 265.5354 170.0547 13.91493969925511
0 APEX
1 23191U 94046A   13282.70260168  .00016322  00000-0  69903-3 0  7098
2 23191 069.9304 009.7412 0798113 265.2475 209.4890 13.91495154925541
0 APEX
1 23191U 94046A   13283.61237723  .00029469  00000-0  12548-2 0  7100
2 23191 069.9306 007.7830 0797595 264.0669 086.9493 13.91523354925675
0 APEX
1 23191U 94046A   13283.78696266  .00017559  00000-0  75106-3 0  7106
2 23191 069.9306 007.4028 0798027 263.8496 241.5269 13.91526284925694
0 APEX
1 23191U 94046A   13285.27789427  .00014752  00000-0  63220-3 0  7111
2 23191 069.9309 004.1867 0797802 261.9208 150.4575 13.91569574925903
0 APEX
1 23191U 94046A   13286.35797524  .00014792  00000-0  63390-3 0  7121
2 23191 069.9311 001.8566 0797665 260.5245 161.3454 13.91598218926050
0 APEX
1 23191U 94046A   13287.51511201  .00016254  00000-0  69557-3 0  7133
2 23191 069.9311 359.3600 0797564 259.0330 198.3841 13.91628765926215
0 APEX
1 23191U 94046A   13288.44732580  .00020302  00000-0  86648-3 0  7141
2 23191 069.9311 357.3491 0797448 257.8298 188.7188 13.91667931926340
0 APEX
1 23191U 94046A   13289.60184825  .00019534  00000-0  83377-3 0  7155
2 23191 069.9307 354.8584 0797303 256.3377 212.9656 13.91703901926508
0 APEX
1 23191U 94046A   13290.60879531  .00019651  00000-0  83847-3 0  7165
2 23191 069.9301 352.6864 0797173 255.0348 217.9783 13.91737823926649
0 APEX
1 23191U 94046A   13291.76594628  .00018750  00000-0  80008-3 0  7170
2 23191 069.9300 350.1901 0797011 253.5415 255.6938 13.91779327926806
0 APEX
1 23191U 94046A   13293.17434715  .00017446  00000-0  74462-3 0  7186
2 23191 069.9295 347.1506 0796815 251.7224 112.4827 13.91829667926995
0 APEX
1 23191U 94046A   13294.48877722  .00020827  00000-0  88723-3 0  7193
2 23191 069.9289 344.3129 0796643 250.0309 218.6653 13.91873295927187
0 APEX
1 23191U 94046A   13295.49389846  .00021709  00000-0  92470-3 0  7206
2 23191 069.9289 342.1434 0796450 248.7282 215.1530 13.91908704927328
